YAOGAN 11               
1 37165U 10047A   22197.86157581  .00000836  00000+0  12599-3 0  9991
2 37165  98.3579 337.0358 0039461 137.3566 223.0718 14.76724983636478
ZHEDA PIXING 1B         
1 37166U 10047B   22198.18396891  .00000995  00000+0  13270-3 0  9990
2 37166  97.7597 172.5896 0022253 297.6753  62.2215 14.81628422638249
ZHEDA PIXING 1C         
1 37167U 10047C   22197.86491177  .00000959  00000+0  12859-3 0  9990
2 37167  97.7909 170.4003 0021820 300.0301  59.8756 14.81497138638151
SBSS (USA 216)          
1 37168U 10048A   22198.17031479  .00000397  00000+0  56637-4 0  9991
2 37168  97.8135  56.1795 0001449  55.2257  96.2002 14.81903432638154
SHIJIAN-6 04A (SJ-6 04A)
1 37179U 10051A   22198.14243635  .00001831  00000+0  17100-3 0  9998
2 37179  97.7616 181.6603 0028921  38.4715 321.8559 14.95114493641803
SHIJIAN-6 04B (SJ-6 04B)
1 37180U 10051B   22198.17598331  .00000804  00000+0  81093-4 0  9991
2 37180  97.7697 180.9993 0012972  48.8136 311.4213 14.93830716641699
XM-5                    
1 37185U 10053A   22197.68530080 -.00000035  00000+0  00000+0 0  9991
2 37185   0.0178  47.3982 0000591 322.5394  56.0520  1.00270320 43121
GLOBALSTAR M079         
1 37188U 10054A   22198.21891545 -.00000101  00000+0  12684-4 0  9991
2 37188  52.0025 144.7665 0000464  46.1252  92.7971 12.62271349542519
GLOBALSTAR M074         
1 37189U 10054B   22197.82614524 -.00000105  00000+0 -93601-5 0  9992
2 37189  52.0002 145.4514 0000393  24.2389   8.4658 12.62268702542396
GLOBALSTAR M076         
1 37190U 10054C   22197.56582315 -.00000125  00000+0 -11981-3 0  9998
2 37190  52.0023 146.3143 0000462  98.8515  72.4115 12.62275990542435
GLOBALSTAR M077         
1 37191U 10054D   22197.99352574 -.00000085  00000+0  10494-3 0  9990
2 37191  52.0073 101.5656 0000553  49.5978 323.5698 12.62265114543232
GLOBALSTAR M075         
1 37192U 10054E   22197.73779334 -.00000119  00000+0 -83696-4 0  9994
2 37192  51.9921 188.6435 0000284  90.9786  79.8859 12.62267099541324
GLOBALSTAR M073         
1 37193U 10054F   22197.87492094 -.00000087  00000+0  95589-4 0  9992
2 37193  52.0063 101.2342 0000611  52.5071  21.5902 12.62266402543172
BSAT-3B                 
1 37207U 10056B   22197.73243785 -.00000363  00000+0  00000+0 0  9992
2 37207   0.0841 301.6472 0000638  64.7837 301.6270  1.00271833 37766
BEIDOU 6                
1 37210U 10057A   22197.88365934 -.00000125  00000+0  00000+0 0  9990
2 37210   0.9012  50.6455 0004499 125.0922 237.0160  1.00270164 42937
FENGYUN 3B              
1 37214U 10059A   22198.20711853 -.00000014  00000+0  16957-4 0  9998
2 37214  99.0915 204.7079 0021209 271.6607  88.2138 14.14259610605165
COSMO-SKYMED 4          
1 37216U 10060A   22198.08535481  .00000321  00000+0  46816-4 0  9996
2 37216  97.8890  21.3220 0001362  80.7553 279.3811 14.82160804632648
SKYTERRA 1              
1 37218U 10061A   22198.11854212 -.00000130  00000+0  00000+0 0  9998
2 37218   2.4781  33.5441 0001253  63.2582 139.4524  1.00271519 42877
ZHONGXING-20A           
1 37234U 10064A   22198.21145576 -.00000371  00000+0  00000+0 0  9993
2 37234   2.7221  88.2669 0002830  35.9728 359.7281  1.00271316 42687
HYLAS 1                 
1 37237U 10065A   22197.54902970 -.00000246  00000+0  00000+0 0  9992
2 37237   1.9893  89.9626 0002314  20.1037 302.9187  1.00271427 42625
INTELSAT 17 (IS-17)     
1 37238U 10065B   22197.88313196 -.00000014  00000+0  00000+0 0  9999
2 37238   0.0403 213.9545 0002356 273.0840 191.5560  1.00272480 38889
BEIDOU 7                
1 37256U 10068A   22198.19404142 -.00000202  00000+0  00000+0 0  9998
2 37256  50.1590 289.2936 0022930 198.5676 342.1989  1.00297787 42443
EUTELSAT KA-SAT 9A      
1 37258U 10069A   22198.14060382  .00000050  00000+0  00000+0 0  9990
2 37258   0.0756 269.2143 0005494 227.2538 218.0862  1.00272887 42472
HISPASAT 30W-5          
1 37264U 10070A   22197.88729936 -.00000228  00000+0  00000+0 0  9994
2 37264   0.0210 112.7980 0005844  12.6609  98.6547  1.00271286 38838
KOREASAT 6              
1 37265U 10070B   22197.80317340 -.00000374  00000+0  00000+0 0  9991
2 37265   0.0096  45.4868 0001729  65.4685 228.7941  1.00271541 42413
BEIDOU 8                
1 37384U 11013A   22197.30074273 -.00000181  00000+0  00000+0 0  9997
2 37384  60.3337  53.9730 0022440 177.9459 275.1620  1.00298597 41313
RESOURCESAT-2           
1 37387U 11015A   22198.18207083  .00000081  00000+0  56870-4 0  9995
2 37387  98.6619 270.1298 0004107   2.5259 357.5947 14.21655111583387
YOUTHSAT                
1 37388U 11015B   22197.82139745  .00000119  00000+0  69168-4 0  9991
2 37388  98.3242 225.2689 0013912 222.0188 312.6430 14.24404963583789
X-SAT                   
1 37389U 11015C   22198.22134113  .00000037  00000+0  33607-4 0  9999
2 37389  98.3328 229.9720 0013265 221.3310 138.6869 14.24429758584447
INTELSAT NEW DAWN       
1 37392U 11016A   22197.88938466  .00000143  00000+0  00000+0 0  9992
2 37392   0.0145 119.8979 0001013   2.6257 165.1466  1.00273233 38930
YAHSAT 1A               
1 37393U 11016B   22197.93397396  .00000089  00000+0  00000+0 0  9999
2 37393   0.0158  54.4539 0002749  66.7460 202.2813  1.00271946 41207
SBIRS GEO-1 (USA 230)   
1 37481U 11019A   22198.15193987 -.00000020  00000+0  00000+0 0  9991
2 37481   1.9393  25.5225 0001898  91.9037 298.4174  1.00272121 40999
TELSTAR 14R             
1 37602U 11021A   22198.12621575 -.00000292  00000+0  00000+0 0  9996
2 37602   0.0260 328.8934 0002724 108.6538 199.7866  1.00271304 41437
GSAT-8                  
1 37605U 11022A   22198.14975986  .00000073  00000+0  00000+0 0  9996
2 37605   0.0363 245.9100 0002212  27.1844 130.7931  1.00272063 40895
ST-2                    
1 37606U 11022B   22197.87202083 -.00000223  00000+0  00000+0 0  9995
2 37606   0.0194  70.6798 0001587  87.9251 178.0185  1.00269973 40920
CHINASAT 10 (ZX 10)     
1 37677U 11026A   22198.08899428 -.00000364  00000+0  00000+0 0  9992
2 37677   0.0627 239.8873 0003978 255.8546 301.6126  1.00275572 40618
SJ-11-03                
1 37730U 11030A   22198.17817738  .00000258  00000+0  61351-4 0  9993
2 37730  97.8110 210.7150 0007419 231.9743 128.0789 14.61033108588007
TIANLIAN 1-02           
1 37737U 11032A   22197.88505455 -.00000063  00000+0  00000+0 0  9993
2 37737   2.3790  74.4819 0084443   0.7403 345.0891  1.00271998 40360
GLOBALSTAR M083         
1 37739U 11033A   22197.89427503 -.00000091  00000+0  71847-4 0  9997
2 37739  51.9873  51.3626 0001040  64.0676  38.8332 12.62268847512192
GLOBALSTAR M088         
1 37740U 11033B   22197.61066191 -.00000089  00000+0  81516-4 0  9992
2 37740  51.9746 318.6162 0001038 102.6435 270.7675 12.62264750507703
GLOBALSTAR M091         
1 37741U 11033C   22197.56527147 -.00000082  00000+0  12201-3 0  9997
2 37741  51.9996 280.4021 0000744 109.6084 356.5450 12.62266635508485
GLOBALSTAR M085         
1 37742U 11033D   22197.88306277 -.00000108  00000+0 -21100-4 0  9991
2 37742  51.9843 231.4168 0000312 126.8203  44.4112 12.62266933509031
GLOBALSTAR M081         
1 37743U 11033E   22198.19508628 -.00000100  00000+0  19038-4 0  9999
2 37743  51.9934 232.5954 0000392 124.6626 265.3825 12.62262505509600
GLOBALSTAR M089         
1 37744U 11033F   22198.16670491 -.00000112  00000+0 -48173-4 0  9991
2 37744  51.9903 187.1098 0000225 205.1739 235.1451 12.62267417510313
GSAT-12                 
1 37746U 11034A   22198.14827747  .00000112  00000+0  00000+0 0  9990
2 37746   1.4536  92.2502 0011684   2.7966 301.2056  1.00269730 40603
SES-3                   
1 37748U 11035A   22197.83125192 -.00000113  00000+0  00000+0 0  9995
2 37748   0.0266 333.6324 0003121 138.7793  18.4606  1.00271290 40241
KAZSAT-2                
1 37749U 11035B   22197.87202083 -.00000210  00000+0  00000+0 0  9993
2 37749   0.0427 130.3456 0001690  41.2229 163.5071  1.00272784 39032
NAVSTAR 66 (USA 232)    
1 37753U 11036A   22197.42836010 -.00000084  00000+0  00000+0 0  9992
2 37753  56.6194  27.5754 0118404  52.6866 313.5045  2.00565500 80562
BEIDOU 9                
1 37763U 11038A   22197.36494605 -.00000063  00000+0  00000+0 0  9995
2 37763  54.4780 178.4592 0098849 228.4095 114.4285  1.00274106 40280
SJ-11-02                
1 37765U 11039A   22198.14944294  .00000255  00000+0  60962-4 0  9999
2 37765  98.4524  48.9156 0012047  51.4784 308.7489 14.61818888584805
ASTRA 1N                
1 37775U 11041A   22197.72896515  .00000107  00000+0  00000+0 0  9996
2 37775   0.0460  31.6043 0004593  49.4358 135.1307  1.00269409 40041
BSAT-3C (JCSAT-110R)    
1 37776U 11041B   22198.02455653 -.00000363  00000+0  00000+0 0  9990
2 37776   0.0118  18.4004 0000151 211.7802 183.4166  1.00272923 40174
PAKSAT-1R               
1 37779U 11042A   22197.88938466  .00000142  00000+0  00000+0 0  9999
2 37779   0.0261  91.3316 0003554  20.4800 181.0123  1.00274134 40123
HAIYANG-2A              
1 37781U 11043A   22198.04600898 -.00000010  00000+0  33414-4 0  9992
2 37781  99.3162 203.3870 0001593 107.2590 252.8736 13.78741742549716
NIGERIASAT-2            
1 37789U 11044B   22198.16561702  .00000143  00000+0  37122-4 0  9990
2 37789  97.8057 219.1590 0009780 309.7882  50.2460 14.62259870582220
NIGERIASAT-X            
1 37790U 11044C   22198.09808530  .00000208  00000+0  53752-4 0  9996
2 37790  97.8903 238.8958 0012929 153.1358 207.0514 14.58758608581584
RASAT                   
1 37791U 11044D   22198.21859435  .00000308  00000+0  66254-4 0  9993
2 37791  98.0971 290.7487 0022676  39.2106 321.0749 14.65036019583472
APRIZESAT 5             
1 37792U 11044E   22198.13247781  .00000454  00000+0  72918-4 0  9996
2 37792  98.3216  74.4311 0056411 269.8100  89.6644 14.75786592587519
APRIZESAT 6             
1 37793U 11044F   22197.85537859  .00000390  00000+0  68837-4 0  9997
2 37793  98.3987  50.9257 0045860 323.4587  46.7607 14.72807340586193
